[{"OBJECT_NAME":"STARLINK-5522","OBJECT_ID":"2023-064BC","EPOCH":"2026-03-09T11:43:29.094816","MEAN_MOTION":14.98324957,"ECCENTRICITY":0.0002967,"INCLINATION":69.9996,"RA_OF_ASC_NODE":104.9153,"ARG_OF_PERICENTER":262.7845,"MEAN_ANOMALY":97.2977,"EPHEMERIS_TYPE":0,"CLASSIFICATION_TYPE":"U","NORAD_CAT_ID":56498,"ELEMENT_SET_NO":999,"REV_AT_EPOCH":15620,"BSTAR":-7.7807843e-5,"MEAN_MOTION_DOT":-1.021e-5,"MEAN_MOTION_DDOT":0},{"OBJECT_NAME":"OV1-10 R\/B","OBJECT_ID":"1966-111C","EPOCH":"2026-03-09T17:10:30.494208","MEAN_MOTION":14.85448079,"ECCENTRICITY":0.00582808,"INCLINATION":93.4003,"RA_OF_ASC_NODE":162.682,"ARG_OF_PERICENTER":65.7943,"MEAN_ANOMALY":294.9357,"EPHEMERIS_TYPE":0,"CLASSIFICATION_TYPE":"U","NORAD_CAT_ID":2621,"ELEMENT_SET_NO":999,"REV_AT_EPOCH":15959,"BSTAR":0.00014045213,"MEAN_MOTION_DOT":1.241e-5,"MEAN_MOTION_DDOT":0}]
